SPACEMOBILE-003         
1 61045U 24163A   26203.37702409  .00001817  00000+0  96310-4 0  9996
2 61045  52.9684 147.6187 0003656 216.2180 143.8567 15.20668610103122
SPACEMOBILE-005         
1 61046U 24163B   26203.55767239  .00005343  00000+0  25491-3 0  9998
2 61046  52.9737 146.7448 0008327 216.0593 143.9840 15.20628898103149
SPACEMOBILE-001         
1 61047U 24163C   26203.55597270  .00000430  00000+0  34043-4 0  9991
2 61047  52.9703 146.4575 0006823 216.1814 143.8720 15.20677464103146
SPACEMOBILE-002         
1 61048U 24163D   26203.14593917  .00022005  00000+0  10065-2 0  9999
2 61048  52.9760 148.3864 0004425 214.1604 145.9106 15.20474992103088
SPACEMOBILE-004         
1 61049U 24163E   26203.12805740  .00021093  00000+0  96140-3 0  9993
2 61049  52.9727 148.2451 0005368 248.8575 111.1846 15.20619582103083
SPACEMOBILE-006         
1 67232U 25309A   26203.18674793  .00002664  00000+0  14204-3 0  9998
2 67232  52.9952 171.3039 0009520 239.2696 120.7360 15.18684570 31919
SPACEMOBILE-008         
1 69589U 26139A   26203.02362932  .00000387  00000+0  38732-4 0  9992
2 69589  52.9952 104.4056 0005288  72.6023 287.5546 15.12810954  5259
SPACEMOBILE-009         
1 69590U 26139B   26203.02606359  .00001404  00000+0  96209-4 0  9992
2 69590  52.9945 104.4147 0005584  69.1876 290.9713 15.12712567  5255
SPACEMOBILE-010         
1 69591U 26139C   26203.42637522  .00001239  00000+0  87277-4 0  9994
2 69591  52.9950 102.6425 0005595  62.5571 297.5989 15.12550128  5321
